{
  "type": "FeatureCollection",
  "features": [
    {
      "type": "Feature",
      "properties": {
        "norad_id": 36048,
        "name": "COSMOS 2251 DEB",
        "group": "cosmos-2251-debris",
        "lat": -34.27012310576321,
        "lon": 111.89936105174515,
        "alt_km": 778.8818676435576,
        "timestamp": "2025-12-22T20:43:46.245135+00:00",
        "meta_object_name": "COSMOS 2251 DEB",
        "meta_object_id": "1993-036AXK",
        "meta_epoch": "2025-12-21T06:01:50.414016",
        "meta_mean_motion": 14.37865645,
        "meta_eccentricity": 0.0026967,
        "meta_inclination": 74.0573,
        "meta_ra_of_asc_node": 283.6319,
        "meta_arg_of_pericenter": 332.094,
        "meta_mean_anomaly": 180.7418,
        "meta_ephemeris_type": 0,
        "meta_classification_type": "U",
        "meta_norad_cat_id": 36048,
        "meta_element_set_no": 999,
        "meta_rev_at_epoch": 85624,
        "meta_bstar": 0.00021907,
        "meta_mean_motion_dot": 6.37e-06,
        "meta_mean_motion_ddot": 0,
        "tle_line1": "1 36048U 93036AXK 25355.25127794  .00000637  00000+0  21907-3 0  9996",
        "tle_line2": "2 36048  74.0573 283.6319 0026967 332.0940 180.7418 14.37865645856245"
      },
      "geometry": {
        "type": "Point",
        "coordinates": [
          111.89936105174515,
          -34.27012310576321
        ]
      }
    },
    {
      "type": "Feature",
      "properties": {
        "norad_id": 36049,
        "name": "COSMOS 2251 DEB",
        "group": "cosmos-2251-debris",
        "lat": 48.69790286215733,
        "lon": -99.22878136069907,
        "alt_km": 677.2832894097628,
        "timestamp": "2025-12-22T20:43:46.245145+00:00",
        "meta_object_name": "COSMOS 2251 DEB",
        "meta_object_id": "1993-036AXL",
        "meta_epoch": "2025-12-19T00:11:29.887584",
        "meta_mean_motion": 14.62222603,
        "meta_eccentricity": 0.00103942,
        "meta_inclination": 74.0312,
        "meta_ra_of_asc_node": 107.1751,
        "meta_arg_of_pericenter": 195.1693,
        "meta_mean_anomaly": 164.9164,
        "meta_ephemeris_type": 0,
        "meta_classification_type": "U",
        "meta_norad_cat_id": 36049,
        "meta_element_set_no": 999,
        "meta_rev_at_epoch": 85456,
        "meta_bstar": 0.00099664593,
        "meta_mean_motion_dot": 4.999e-05,
        "meta_mean_motion_ddot": 0,
        "tle_line1": "1 36049U 93036AXL 25353.00798481  .00004999  00000+0  99665-3 0  9996",
        "tle_line2": "2 36049  74.0312 107.1751 0010394 195.1693 164.9164 14.62222603854561"
      },
      "geometry": {
        "type": "Point",
        "coordinates": [
          -99.22878136069907,
          48.69790286215733
        ]
      }
    },
    {
      "type": "Feature",
      "properties": {
        "norad_id": 36050,
        "name": "COSMOS 2251 DEB",
        "group": "cosmos-2251-debris",
        "lat": 4.5204822993683225,
        "lon": -7.893115818504702,
        "alt_km": 549.4993225571379,
        "timestamp": "2025-12-22T20:43:46.245155+00:00",
        "meta_object_name": "COSMOS 2251 DEB",
        "meta_object_id": "1993-036AXM",
        "meta_epoch": "2025-12-22T05:32:53.453472",
        "meta_mean_motion": 15.01164755,
        "meta_eccentricity": 0.00884093,
        "meta_inclination": 74.0296,
        "meta_ra_of_asc_node": 174.6923,
        "meta_arg_of_pericenter": 252.1595,
        "meta_mean_anomaly": 106.9934,
        "meta_ephemeris_type": 0,
        "meta_classification_type": "U",
        "meta_norad_cat_id": 36050,
        "meta_element_set_no": 999,
        "meta_rev_at_epoch": 67177,
        "meta_bstar": 0.00062332037,
        "meta_mean_motion_dot": 8.655e-05,
        "meta_mean_motion_ddot": 0,
        "tle_line1": "1 36050U 93036AXM 25356.23117423  .00008655  00000+0  62332-3 0  9991",
        "tle_line2": "2 36050  74.0296 174.6923 0088409 252.1595 106.9934 15.01164755671779"
      },
      "geometry": {
        "type": "Point",
        "coordinates": [
          -7.893115818504702,
          4.5204822993683225
        ]
      }
    },
    {
      "type": "Feature",
      "properties": {
        "norad_id": 36053,
        "name": "COSMOS 2251 DEB",
        "group": "cosmos-2251-debris",
        "lat": -67.53193249662084,
        "lon": 88.85123493368535,
        "alt_km": 729.4347643880246,
        "timestamp": "2025-12-22T20:43:46.245165+00:00",
        "meta_object_name": "COSMOS 2251 DEB",
        "meta_object_id": "1993-036AXQ",
        "meta_epoch": "2025-12-19T02:27:11.674944",
        "meta_mean_motion": 14.57252603,
        "meta_eccentricity": 0.00325446,
        "meta_inclination": 73.8697,
        "meta_ra_of_asc_node": 140.476,
        "meta_arg_of_pericenter": 87.3695,
        "meta_mean_anomaly": 273.1193,
        "meta_ephemeris_type": 0,
        "meta_classification_type": "U",
        "meta_norad_cat_id": 36053,
        "meta_element_set_no": 999,
        "meta_rev_at_epoch": 87537,
        "meta_bstar": 0.0010759038,
        "meta_mean_motion_dot": 4.872e-05,
        "meta_mean_motion_ddot": 0,
        "tle_line1": "1 36053U 93036AXQ 25353.10221846  .00004872  00000+0  10759-2 0  9994",
        "tle_line2": "2 36053  73.8697 140.4760 0032544  87.3695 273.1193 14.57252603875378"
      },
      "geometry": {
        "type": "Point",
        "coordinates": [
          88.85123493368535,
          -67.53193249662084
        ]
      }
    },
    {
      "type": "Feature",
      "properties": {
        "norad_id": 36058,
        "name": "COSMOS 2251 DEB",
        "group": "cosmos-2251-debris",
        "lat": 67.69462042977493,
        "lon": 149.86774256546508,
        "alt_km": 666.3866727718032,
        "timestamp": "2025-12-22T20:43:46.245186+00:00",
        "meta_object_name": "COSMOS 2251 DEB",
        "meta_object_id": "1993-036AXV",
        "meta_epoch": "2025-12-20T18:52:04.818432",
        "meta_mean_motion": 14.58726339,
        "meta_eccentricity": 0.00440828,
        "meta_inclination": 74.0229,
        "meta_ra_of_asc_node": 18.1226,
        "meta_arg_of_pericenter": 150.2394,
        "meta_mean_anomaly": 210.1292,
        "meta_ephemeris_type": 0,
        "meta_classification_type": "U",
        "meta_norad_cat_id": 36058,
        "meta_element_set_no": 999,
        "meta_rev_at_epoch": 66228,
        "meta_bstar": 0.0002931852,
        "meta_mean_motion_dot": 1.357e-05,
        "meta_mean_motion_ddot": 0,
        "tle_line1": "1 36058U 93036AXV 25354.78616688  .00001357  00000+0  29319-3 0  9994",
        "tle_line2": "2 36058  74.0229  18.1226 0044082 150.2394 210.1292 14.58726339662289"
      },
      "geometry": {
        "type": "Point",
        "coordinates": [
          149.86774256546508,
          67.69462042977493
        ]
      }
    },
    {
      "type": "Feature",
      "properties": {
        "norad_id": 36060,
        "name": "COSMOS 2251 DEB",
        "group": "cosmos-2251-debris",
        "lat": 55.86174153174999,
        "lon": 10.804989663479404,
        "alt_km": 757.034318656868,
        "timestamp": "2025-12-22T20:43:46.245219+00:00",
        "meta_object_name": "COSMOS 2251 DEB",
        "meta_object_id": "1993-036AXX",
        "meta_epoch": "2025-12-22T08:31:01.741728",
        "meta_mean_motion": 14.42019225,
        "meta_eccentricity": 0.00155648,
        "meta_inclination": 74.0279,
        "meta_ra_of_asc_node": 216.7352,
        "meta_arg_of_pericenter": 312.7382,
        "meta_mean_anomaly": 47.2463,
        "meta_ephemeris_type": 0,
        "meta_classification_type": "U",
        "meta_norad_cat_id": 36060,
        "meta_element_set_no": 999,
        "meta_rev_at_epoch": 85148,
        "meta_bstar": 0.00027365576,
        "meta_mean_motion_dot": 8.73e-06,
        "meta_mean_motion_ddot": 0,
        "tle_line1": "1 36060U 93036AXX 25356.35488127  .00000873  00000+0  27366-3 0  9999",
        "tle_line2": "2 36060  74.0279 216.7352 0015564 312.7382  47.2463 14.42019225851481"
      },
      "geometry": {
        "type": "Point",
        "coordinates": [
          10.804989663479404,
          55.86174153174999
        ]
      }
    },
    {
      "type": "Feature",
      "properties": {
        "norad_id": 36061,
        "name": "COSMOS 2251 DEB",
        "group": "cosmos-2251-debris",
        "lat": -0.5198566952972962,
        "lon": -18.919607360601088,
        "alt_km": 771.3378686742726,
        "timestamp": "2025-12-22T20:43:46.245230+00:00",
        "meta_object_name": "COSMOS 2251 DEB",
        "meta_object_id": "1993-036AXY",
        "meta_epoch": "2025-12-22T05:39:37.195488",
        "meta_mean_motion": 14.33723383,
        "meta_eccentricity": 0.00369223,
        "meta_inclination": 74.0244,
        "meta_ra_of_asc_node": 342.3781,
        "meta_arg_of_pericenter": 67.3143,
        "meta_mean_anomaly": 293.1905,
        "meta_ephemeris_type": 0,
        "meta_classification_type": "U",
        "meta_norad_cat_id": 36061,
        "meta_element_set_no": 999,
        "meta_rev_at_epoch": 65240,
        "meta_bstar": 0.00028443086,
        "meta_mean_motion_dot": 7.7e-06,
        "meta_mean_motion_ddot": 0,
        "tle_line1": "1 36061U 93036AXY 25356.23584717  .00000770  00000+0  28443-3 0  9992",
        "tle_line2": "2 36061  74.0244 342.3781 0036922  67.3143 293.1905 14.33723383652406"
      },
      "geometry": {
        "type": "Point",
        "coordinates": [
          -18.919607360601088,
          -0.5198566952972962
        ]
      }
    }
  ]
}